NORAD_CAT_ID,OBJECT_NAME,OBJECT_TYPE,EPOCH,MEAN_MOTION,ECCENTRICITY,INCLINATION,RA_OF_ASC_NODE,ARG_OF_PERICENTER,MEAN_ANOMALY,BSTAR,MEAN_MOTION_DOT,MEAN_MOTION_DDOT,TLE_LINE0,TLE_LINE1,TLE_LINE2,SEMIMAJOR_AXIS,PERIOD,APOGEE,PERIGEE,DECAYED
53598.0,STARLINK-4676,PAYLOAD,2024-02-25 18:35:39,15.08837153,0.0001606,53.22,338.9356,81.0436,279.0738,0.00022204,3.247e-05,0.0,0 STARLINK-4676,1 53598U 22104L   24056.77475830  .00003247  00000-0  22204-3 0  9996,2 53598  53.2200 338.9356 0001606  81.0436 279.0738 15.08837153 82777,6917.889,95.438,540.865,538.643,0.0
53598.0,STARLINK-4676,PAYLOAD,2024-02-26 04:07:56,15.08860474,0.0001433,53.2188,337.1504,84.3258,275.7897,0.00042065,6.417e-05,0.0,0 STARLINK-4676,1 53598U 22104L   24057.17218653  .00006417  00000-0  42065-3 0  9998,2 53598  53.2188 337.1504 0001433  84.3258 275.7897 15.08860474 82832,6917.818,95.436,540.674,538.691,0.0
53598.0,STARLINK-4676,PAYLOAD,2024-02-27 00:47:58,15.08845748,0.0001676,53.219,333.2868,73.6993,286.4183,-8.4114e-05,-1.627e-05,0.0,0 STARLINK-4676,1 53598U 22104L   24058.03331494 -.00001627  00000-0 -84114-4 0  9995,2 53598  53.2190 333.2868 0001676  73.6993 286.4183 15.08845748 82969,6917.863,95.437,540.887,538.568,0.0
53598.0,STARLINK-4676,PAYLOAD,2024-02-27 03:58:44,15.0884735,0.0001739,53.2196,332.6891,71.8559,288.2623,-1.1176e-07,-2.9e-06,0.0,0 STARLINK-4676,1 53598U 22104L   24058.16579388 -.00000290  00000-0 -11176-6 0  9990,2 53598  53.2196 332.6891 0001739  71.8559 288.2623 15.08847350 83671,6917.858,95.437,540.926,538.52,0.0
53598.0,STARLINK-4676,PAYLOAD,2024-02-27 18:17:13,15.088353,0.0001394,53.2182,330.0119,89.2134,270.9018,0.00011948,1.614e-05,0.0,0 STARLINK-4676,1 53598U 22104L   24058.76195927  .00001614  00000-0  11948-3 0  9992,2 53598  53.2182 330.0119 0001394  89.2134 270.9018 15.08835300 83072,6917.895,95.438,540.724,538.795,0.0
53598.0,STARLINK-4676,PAYLOAD,2024-02-27 21:27:59,15.08840797,0.0001872,53.2167,329.419,123.2234,236.8938,9.6706e-05,1.251e-05,0.0,0 STARLINK-4676,1 53598U 22104L   24058.89443477  .00001251  00000-0  96706-4 0  9995,2 53598  53.2167 329.4190 0001872 123.2234 236.8938 15.08840797 83783,6917.878,95.438,541.038,538.448,0.0
53598.0,STARLINK-4676,PAYLOAD,2024-02-28 03:49:31,15.0884859,0.0001417,53.2176,328.2295,99.7644,260.3508,5.5626e-05,5.98e-06,0.0,0 STARLINK-4676,1 53598U 22104L   24059.15938974  .00000598  00000-0  55626-4 0  9995,2 53598  53.2176 328.2295 0001417  99.7644 260.3508 15.08848590 83136,6917.854,95.437,540.699,538.739,0.0
53598.0,STARLINK-4676,PAYLOAD,2024-02-28 18:08:00,15.08835801,0.0001393,53.2169,325.552,103.6708,256.4439,3.3374e-05,2.43e-06,0.0,0 STARLINK-4676,1 53598U 22104L   24059.75555939  .00000243  00000-0  33374-4 0  9990,2 53598  53.2169 325.5520 0001393 103.6708 256.4439 15.08835801 83228,6917.893,95.438,540.722,538.795,0.0
53598.0,STARLINK-4676,PAYLOAD,2024-02-28 22:54:09,15.08838066,0.0001417,53.2168,324.6602,104.9273,255.1876,6.4431e-05,7.38e-06,0.0,0 STARLINK-4676,1 53598U 22104L   24059.95427851  .00000738  00000-0  64431-4 0  9990,2 53598  53.2168 324.6602 0001417 104.9273 255.1876 15.08838066 83942,6917.886,95.438,540.732,538.771,0.0
53598.0,STARLINK-4676,PAYLOAD,2024-02-29 10:01:51,15.08839573,0.0001397,53.217,322.5787,104.1941,255.9206,6.8104e-05,7.96e-06,0.0,0 STARLINK-4676,1 53598U 22104L   24060.41795847  .00000796  00000-0  68104-4 0  9991,2 53598  53.2170 322.5787 0001397 104.1941 255.9206 15.08839573 84015,6917.882,95.438,540.713,538.78,0.0
53598.0,STARLINK-4676,PAYLOAD,2024-02-29 22:44:57,15.08835162,0.0001745,53.2191,320.2013,110.9809,249.137,3.9359e-05,3.38e-06,0.0,0 STARLINK-4676,1 53598U 22104L   24060.94788638  .00000338  00000-0  39359-4 0  9991,2 53598  53.2191 320.2013 0001745 110.9809 249.1370 15.08835162 84095,6917.895,95.438,540.967,538.553,0.0
53598.0,STARLINK-4676,PAYLOAD,2024-03-01 03:31:06,15.08840498,0.0001426,53.219,319.3112,101.8628,258.2524,8.4503e-05,1.057e-05,0.0,0 STARLINK-4676,1 53598U 22104L   24061.14660225  .00001057  00000-0  84503-4 0  9995,2 53598  53.2190 319.3112 0001426 101.8628 258.2524 15.08840498 83434,6917.879,95.438,540.73,538.757,0.0
53598.0,STARLINK-4676,PAYLOAD,2024-03-01 09:52:38,15.0883996,0.0001437,53.218,318.122,99.0774,261.0381,3.6618e-05,2.95e-06,0.0,0 STARLINK-4676,1 53598U 22104L   24061.41156139  .00000295  00000-0  36618-4 0  9996,2 53598  53.2180 318.1220 0001437  99.0774 261.0381 15.08839960 84168,6917.881,95.438,540.74,538.751,0.0
53598.0,STARLINK-4676,PAYLOAD,2024-03-01 21:00:20,15.08842869,0.0001362,53.2175,316.0397,95.3314,264.7834,0.00014258,1.982e-05,0.0,0 STARLINK-4676,1 53598U 22104L   24061.87524123  .00001982  00000-0  14258-3 0  9997,2 53598  53.2175 316.0397 0001362  95.3314 264.7834 15.08842869 84233,6917.872,95.437,540.679,538.794,0.0
53598.0,STARLINK-4676,PAYLOAD,2024-03-02 00:11:06,15.08847733,0.000138,53.2177,315.4452,95.2304,264.8846,0.00022125,3.236e-05,0.0,0 STARLINK-4676,1 53598U 22104L   24062.00771933  .00003236  00000-0  22125-3 0  9992,2 53598  53.2177 315.4452 0001380  95.2304 264.8846 15.08847733 84259,6917.857,95.437,540.676,538.767,0.0
53598.0,STARLINK-4676,PAYLOAD,2024-03-02 22:26:31,15.08834059,0.0001359,53.217,311.281,67.7654,292.3482,8.8814e-06,-1.47e-06,0.0,0 STARLINK-4676,1 53598U 22104L   24062.93508906 -.00000147  00000-0  88814-5 0  9990,2 53598  53.2170 311.2810 0001359  67.7654 292.3482 15.08834059 84396,6917.899,95.438,540.704,538.823,0.0
53598.0,STARLINK-4676,PAYLOAD,2024-03-03 01:37:17,15.08837076,0.0001273,53.2174,310.6862,83.4603,276.6534,5.8429e-05,6.42e-06,0.0,0 STARLINK-4676,1 53598U 22104L   24063.06756871  .00000642  00000-0  58429-4 0  9998,2 53598  53.2174 310.6862 0001273  83.4603 276.6534 15.08837076 83725,6917.889,95.438,540.635,538.874,0.0
53598.0,STARLINK-4676,PAYLOAD,2024-03-03 20:41:55,15.08848825,0.0001246,53.2176,307.1171,77.2899,282.8232,0.00024218,3.569e-05,0.0,0 STARLINK-4676,1 53598U 22104L   24063.86244382  .00003569  00000-0  24218-3 0  9994,2 53598  53.2176 307.1171 0001246  77.2899 282.8232 15.08848825 84537,6917.853,95.437,540.58,538.856,0.0
53598.0,STARLINK-4676,PAYLOAD,2024-03-03 23:52:41,15.08867133,0.000175,53.2179,306.5242,60.3221,299.7945,0.00063177,9.788e-05,0.0,0 STARLINK-4676,1 53598U 22104L   24063.99491958  .00009788  00000-0  63177-3 0  9997,2 53598  53.2179 306.5242 0001750  60.3221 299.7945 15.08867133 83860,6917.797,95.436,540.873,538.452,0.0
53598.0,STARLINK-4676,PAYLOAD,2024-03-04 09:24:59,15.08858663,0.0001555,53.2173,304.7411,73.7633,286.353,0.00041733,6.363e-05,0.0,0 STARLINK-4676,1 53598U 22104L   24064.39235790  .00006363  00000-0  41733-3 0  9992,2 53598  53.2173 304.7411 0001555  73.7633 286.3530 15.08858663 83927,6917.823,95.436,540.764,538.613,0.0
53598.0,STARLINK-4676,PAYLOAD,2024-03-04 20:32:41,15.08853231,0.0001254,53.2167,302.6558,101.4455,258.6678,0.00020692,3.008e-05,0.0,0 STARLINK-4676,1 53598U 22104L   24064.85603463  .00003008  00000-0  20692-3 0  9993,2 53598  53.2167 302.6558 0001254 101.4455 258.6678 15.08853231 83994,6917.84,95.437,540.572,538.837,0.0
53598.0,STARLINK-4676,PAYLOAD,2024-03-04 22:08:04,15.08852731,0.0001351,53.2178,302.3579,96.9357,263.1789,0.00018499,2.658e-05,0.0,0 STARLINK-4676,1 53598U 22104L   24064.92227512  .00002658  00000-0  18499-3 0  9990,2 53598  53.2178 302.3579 0001351  96.9357 263.1789 15.08852731 84699,6917.841,95.437,540.641,538.772,0.0
53598.0,STARLINK-4676,PAYLOAD,2024-03-05 20:23:28,15.08838096,0.0001407,53.2165,298.1952,96.8094,263.3058,-0.0002534,-4.318e-05,0.0,0 STARLINK-4676,1 53598U 22104L   24065.84964030 -.00004318  00000-0 -25340-3 0  9995,2 53598  53.2165 298.1952 0001407  96.8094 263.3058 15.08838096 84140,6917.886,95.438,540.725,538.778,0.0
53598.0,STARLINK-4676,PAYLOAD,2024-03-05 21:58:52,15.08838625,0.0001415,53.2169,297.8984,93.4373,266.6781,-0.0002271,-3.9e-05,0.0,0 STARLINK-4676,1 53598U 22104L   24065.91588064 -.00003900  00000-0 -22710-3 0  9996,2 53598  53.2169 297.8984 0001415  93.4373 266.6781 15.08838625 84841,6917.885,95.438,540.728,538.771,0.0
53598.0,STARLINK-4676,PAYLOAD,2024-03-06 21:49:39,15.08843535,0.0001459,53.2171,293.4396,86.6267,273.4892,0.00022189,3.246e-05,0.0,0 STARLINK-4676,1 53598U 22104L   24066.90948229  .00003246  00000-0  22189-3 0  9990,2 53598  53.2171 293.4396 0001459  86.6267 273.4892 15.08843535 84303,6917.87,95.437,540.744,538.725,0.0
53598.0,STARLINK-4676,PAYLOAD,2024-03-08 07:12:45,15.08844632,0.0001305,53.2168,287.1927,82.6944,277.4197,0.00023132,3.396e-05,0.0,0 STARLINK-4676,1 53598U 22104L   24068.30052587  .00003396  00000-0  23132-3 0  9994,2 53598  53.2168 287.1927 0001305  82.6944 277.4197 15.08844632 84511,6917.866,95.437,540.634,538.828,0.0
53598.0,STARLINK-4676,PAYLOAD,2024-03-08 15:09:41,15.08842016,0.0001388,53.2168,285.7068,88.228,271.8871,0.00025657,3.798e-05,0.0,0 STARLINK-4676,1 53598U 22104L   24068.63172667  .00003798  00000-0  25657-3 0  9992,2 53598  53.2168 285.7068 0001388  88.2280 271.8871 15.08842016 85250,6917.874,95.437,540.699,538.779,0.0
53598.0,STARLINK-4676,PAYLOAD,2024-03-09 07:03:32,15.08848041,0.0001451,53.2163,282.733,79.8589,280.2567,0.00020776,3.021e-05,0.0,0 STARLINK-4676,1 53598U 22104L   24069.29412271  .00003021  00000-0  20776-3 0  9999,2 53598  53.2163 282.7330 0001451  79.8589 280.2567 15.08848041 85354,6917.856,95.437,540.725,538.717,0.0
53598.0,STARLINK-4676,PAYLOAD,2024-03-10 00:32:48,15.08804182,0.0001787,53.2167,279.4612,81.2148,278.9046,0.00088938,0.00013881,0.0,0 STARLINK-4676,1 53598U 22104L   24070.02278767  .00013881  00000-0  88938-3 0  9991,2 53598  53.2167 279.4612 0001787  81.2148 278.9046 15.08804182 84773,6917.99,95.44,541.091,538.619,0.0
53598.0,STARLINK-4676,PAYLOAD,2024-03-10 06:54:19,15.08833881,0.0001547,53.217,278.2715,83.7703,276.3465,-4.7184e-05,-1.039e-05,0.0,0 STARLINK-4676,1 53598U 22104L   24070.28773048 -.00001039  00000-0 -47184-4 0  9994,2 53598  53.2170 278.2715 0001547  83.7703 276.3465 15.08833881 84816,6917.899,95.438,540.834,538.694,0.0
